{
  "type": "FeatureCollection",
  "features": [
    {
      "type": "Feature",
      "properties": {
        "norad_id": 38795,
        "name": "FENGYUN 1C DEB",
        "group": "fengyun-1c-debris",
        "lat": 21.476561765996,
        "lon": -166.2592451585192,
        "alt_km": 1166.6759858483865,
        "timestamp": "2025-12-13T10:41:26.056269+00:00",
        "meta_object_name": "FENGYUN 1C DEB",
        "meta_object_id": "1999-025EUK",
        "meta_epoch": "2025-12-12T08:33:45.693504",
        "meta_mean_motion": 13.2989862,
        "meta_eccentricity": 0.05018442,
        "meta_inclination": 98.7002,
        "meta_ra_of_asc_node": 9.364,
        "meta_arg_of_pericenter": 256.7527,
        "meta_mean_anomaly": 97.7178,
        "meta_ephemeris_type": 0,
        "meta_classification_type": "U",
        "meta_norad_cat_id": 38795,
        "meta_element_set_no": 999,
        "meta_rev_at_epoch": 78507,
        "meta_bstar": 0.0049038315,
        "meta_mean_motion_dot": 4.556e-05,
        "meta_mean_motion_ddot": 0,
        "tle_line1": "1 38795U 99025EUK 25346.35677886  .00004556  00000+0  49038-2 0  9992",
        "tle_line2": "2 38795  98.7002   9.3640 0501844 256.7527  97.7178 13.29898620785072"
      },
      "geometry": {
        "type": "Point",
        "coordinates": [
          -166.2592451585192,
          21.476561765996
        ]
      }
    },
    {
      "type": "Feature",
      "properties": {
        "norad_id": 38797,
        "name": "FENGYUN 1C DEB",
        "group": "fengyun-1c-debris",
        "lat": 57.0056362718368,
        "lon": -134.64189497342608,
        "alt_km": 1195.6279911155689,
        "timestamp": "2025-12-13T10:41:26.056279+00:00",
        "meta_object_name": "FENGYUN 1C DEB",
        "meta_object_id": "1999-025EUM",
        "meta_epoch": "2025-12-11T10:46:32.675520",
        "meta_mean_motion": 13.61609837,
        "meta_eccentricity": 0.02449104,
        "meta_inclination": 99.4842,
        "meta_ra_of_asc_node": 238.3367,
        "meta_arg_of_pericenter": 224.6313,
        "meta_mean_anomaly": 133.4881,
        "meta_ephemeris_type": 0,
        "meta_classification_type": "U",
        "meta_norad_cat_id": 38797,
        "meta_element_set_no": 999,
        "meta_rev_at_epoch": 59265,
        "meta_bstar": 0.00041911499,
        "meta_mean_motion_dot": 3.48e-06,
        "meta_mean_motion_ddot": 0,
        "tle_line1": "1 38797U 99025EUM 25345.44898930  .00000348  00000+0  41911-3 0  9996",
        "tle_line2": "2 38797  99.4842 238.3367 0244910 224.6313 133.4881 13.61609837592654"
      },
      "geometry": {
        "type": "Point",
        "coordinates": [
          -134.64189497342608,
          57.0056362718368
        ]
      }
    },
    {
      "type": "Feature",
      "properties": {
        "norad_id": 38799,
        "name": "FENGYUN 1C DEB",
        "group": "fengyun-1c-debris",
        "lat": -70.46757980680289,
        "lon": 87.53392532052526,
        "alt_km": 678.3112301257033,
        "timestamp": "2025-12-13T10:41:26.056289+00:00",
        "meta_object_name": "FENGYUN 1C DEB",
        "meta_object_id": "1999-025EUP",
        "meta_epoch": "2025-12-07T22:24:30.590496",
        "meta_mean_motion": 14.4868874,
        "meta_eccentricity": 0.01640713,
        "meta_inclination": 98.4063,
        "meta_ra_of_asc_node": 57.4094,
        "meta_arg_of_pericenter": 5.0879,
        "meta_mean_anomaly": 355.1934,
        "meta_ephemeris_type": 0,
        "meta_classification_type": "U",
        "meta_norad_cat_id": 38799,
        "meta_element_set_no": 999,
        "meta_rev_at_epoch": 63969,
        "meta_bstar": 0.00109493,
        "meta_mean_motion_dot": 4.844e-05,
        "meta_mean_motion_ddot": 0,
        "tle_line1": "1 38799U 99025EUP 25341.93368739  .00004844  00000+0  10949-2 0  9998",
        "tle_line2": "2 38799  98.4063  57.4094 0164071   5.0879 355.1934 14.48688740639698"
      },
      "geometry": {
        "type": "Point",
        "coordinates": [
          87.53392532052526,
          -70.46757980680289
        ]
      }
    },
    {
      "type": "Feature",
      "properties": {
        "norad_id": 38801,
        "name": "FENGYUN 1C DEB",
        "group": "fengyun-1c-debris",
        "lat": 33.18166845154944,
        "lon": -136.4362934275853,
        "alt_km": 1034.1895085628203,
        "timestamp": "2025-12-13T10:41:26.056300+00:00",
        "meta_object_name": "FENGYUN 1C DEB",
        "meta_object_id": "1999-025EUR",
        "meta_epoch": "2025-12-12T08:59:43.054368",
        "meta_mean_motion": 14.2481005,
        "meta_eccentricity": 0.03470203,
        "meta_inclination": 98.374,
        "meta_ra_of_asc_node": 37.0126,
        "meta_arg_of_pericenter": 353.0608,
        "meta_mean_anomaly": 63.1287,
        "meta_ephemeris_type": 0,
        "meta_classification_type": "U",
        "meta_norad_cat_id": 38801,
        "meta_element_set_no": 999,
        "meta_rev_at_epoch": 64355,
        "meta_bstar": 0.00081520626,
        "meta_mean_motion_dot": 3.523e-05,
        "meta_mean_motion_ddot": 0,
        "tle_line1": "1 38801U 99025EUR 25346.37480387  .00003523  00000+0  81521-3 0  9997",
        "tle_line2": "2 38801  98.3740  37.0126 0347020 353.0608  63.1287 14.24810050643558"
      },
      "geometry": {
        "type": "Point",
        "coordinates": [
          -136.4362934275853,
          33.18166845154944
        ]
      }
    },
    {
      "type": "Feature",
      "properties": {
        "norad_id": 38803,
        "name": "FENGYUN 1C DEB",
        "group": "fengyun-1c-debris",
        "lat": 10.41324348920021,
        "lon": -10.380104460476833,
        "alt_km": 772.0298865757959,
        "timestamp": "2025-12-13T10:41:26.056310+00:00",
        "meta_object_name": "FENGYUN 1C DEB",
        "meta_object_id": "1999-025EUT",
        "meta_epoch": "2025-12-11T23:13:14.211840",
        "meta_mean_motion": 14.23655987,
        "meta_eccentricity": 0.006424,
        "meta_inclination": 99.1403,
        "meta_ra_of_asc_node": 349.7804,
        "meta_arg_of_pericenter": 38.5359,
        "meta_mean_anomaly": 322.0379,
        "meta_ephemeris_type": 0,
        "meta_classification_type": "U",
        "meta_norad_cat_id": 38803,
        "meta_element_set_no": 999,
        "meta_rev_at_epoch": 60201,
        "meta_bstar": 0.003165,
        "meta_mean_motion_dot": 7.334e-05,
        "meta_mean_motion_ddot": 0,
        "tle_line1": "1 38803U 99025EUT 25345.96752560  .00007334  00000+0  31650-2 0  9999",
        "tle_line2": "2 38803  99.1403 349.7804 0064240  38.5359 322.0379 14.23655987602019"
      },
      "geometry": {
        "type": "Point",
        "coordinates": [
          -10.380104460476833,
          10.41324348920021
        ]
      }
    },
    {
      "type": "Feature",
      "properties": {
        "norad_id": 38809,
        "name": "FENGYUN 1C DEB",
        "group": "fengyun-1c-debris",
        "lat": -50.98470742537409,
        "lon": 8.34637195794107,
        "alt_km": 685.0487996093361,
        "timestamp": "2025-12-13T10:41:26.056320+00:00",
        "meta_object_name": "FENGYUN 1C DEB",
        "meta_object_id": "1999-025EUZ",
        "meta_epoch": "2025-12-12T06:08:20.627520",
        "meta_mean_motion": 14.18170035,
        "meta_eccentricity": 0.02227856,
        "meta_inclination": 98.5902,
        "meta_ra_of_asc_node": 356.4418,
        "meta_arg_of_pericenter": 329.4038,
        "meta_mean_anomaly": 29.4297,
        "meta_ephemeris_type": 0,
        "meta_classification_type": "U",
        "meta_norad_cat_id": 38809,
        "meta_element_set_no": 999,
        "meta_rev_at_epoch": 69199,
        "meta_bstar": 0.00091383718,
        "meta_mean_motion_dot": 2.353e-05,
        "meta_mean_motion_ddot": 0,
        "tle_line1": "1 38809U 99025EUZ 25346.25579430  .00002353  00000+0  91384-3 0  9998",
        "tle_line2": "2 38809  98.5902 356.4418 0222785 329.4038  29.4297 14.18170035691996"
      },
      "geometry": {
        "type": "Point",
        "coordinates": [
          8.34637195794107,
          -50.98470742537409
        ]
      }
    },
    {
      "type": "Feature",
      "properties": {
        "norad_id": 38813,
        "name": "FENGYUN 1C DEB",
        "group": "fengyun-1c-debris",
        "lat": 55.71548447921025,
        "lon": -29.329618259886125,
        "alt_km": 816.7340230006439,
        "timestamp": "2025-12-13T10:41:26.056330+00:00",
        "meta_object_name": "FENGYUN 1C DEB",
        "meta_object_id": "1999-025EVD",
        "meta_epoch": "2025-12-12T17:30:54.053856",
        "meta_mean_motion": 14.20164567,
        "meta_eccentricity": 0.00064842,
        "meta_inclination": 99.3454,
        "meta_ra_of_asc_node": 343.8927,
        "meta_arg_of_pericenter": 113.9207,
        "meta_mean_anomaly": 246.2647,
        "meta_ephemeris_type": 0,
        "meta_classification_type": "U",
        "meta_norad_cat_id": 38813,
        "meta_element_set_no": 999,
        "meta_rev_at_epoch": 48250,
        "meta_bstar": 0.00078529421,
        "meta_mean_motion_dot": 1.627e-05,
        "meta_mean_motion_ddot": 0,
        "tle_line1": "1 38813U 99025EVD 25346.72979229  .00001627  00000+0  78529-3 0  9994",
        "tle_line2": "2 38813  99.3454 343.8927 0006484 113.9207 246.2647 14.20164567482506"
      },
      "geometry": {
        "type": "Point",
        "coordinates": [
          -29.329618259886125,
          55.71548447921025
        ]
      }
    }
  ]
}